start=new Date('2021-09-10T00:00:00.000Z').valueOf();
sats=[{"FILE":"3111760","GP_ID":"184385194","APOAPSIS":"547.953","MEAN_ANOMALY":"304.3483","ECCENTRICITY":"0.00010630","MEAN_MOTION":"15.06398919","RA_OF_ASC_NODE":"248.8519","OBJECT_ID":"2020-025BD","TIME_SYSTEM":"UTC","RCS_SIZE":"LARGE","COUNTRY_CODE":"US","EPOCH":"2021-09-09T11:12:25.201440","INCLINATION":"53.0543","NORAD_CAT_ID":"45582","SITE":"AFETR","DECAY_DATE":null,"EPHEMERIS_TYPE":"0","CLASSIFICATION_TYPE":"U","REV_AT_EPOCH":"7738","REF_FRAME":"TEME","BSTAR":"0.00007652500000","OBJECT_NAME":"STARLINK-1337","CENTER_NAME":"EARTH","TLE_LINE1":"1 45582U 20025BD  21252.46695835  .00000859  00000-0  76525-4 0  9992","MEAN_MOTION_DDOT":"0.0000000000000","LAUNCH_DATE":"2020-04-22","PERIAPSIS":"546.481","PERIOD":"95.592","SEMIMAJOR_AXIS":"6925.352","TLE_LINE2":"2 45582  53.0543 248.8519 0001063  55.7606 304.3483 15.06398919 77383","OBJECT_TYPE":"PAYLOAD","MEAN_MOTION_DOT":"0.00000859","MEAN_ELEMENT_THEORY":"SGP4","ARG_OF_PERICENTER":"55.7606","ELEMENT_SET_NO":"999"},{"GP_ID":"184379824","FILE":"3111654","ECCENTRICITY":"0.00014100","APOAPSIS":"548.111","MEAN_ANOMALY":"297.1058","MEAN_MOTION":"15.06425894","RA_OF_ASC_NODE":"248.6340","OBJECT_ID":"2020-025BE","TIME_SYSTEM":"UTC","EPOCH":"2021-09-09T12:21:25.574976","COUNTRY_CODE":"US","RCS_SIZE":"LARGE","INCLINATION":"53.0519","SITE":"AFETR","NORAD_CAT_ID":"45583","REV_AT_EPOCH":"7799","CLASSIFICATION_TYPE":"U","EPHEMERIS_TYPE":"0","DECAY_DATE":null,"BSTAR":"0.00043354000000","REF_FRAME":"TEME","TLE_LINE1":"1 45583U 20025BE  21252.51487934  .00006186  00000-0  43354-3 0  9990","CENTER_NAME":"EARTH","OBJECT_NAME":"STARLINK-1340","MEAN_MOTION_DDOT":"0.0000000000000","LAUNCH_DATE":"2020-04-22","PERIAPSIS":"546.158","TLE_LINE2":"2 45583  53.0519 248.6340 0001410  63.0074 297.1058 15.06425894 77991","SEMIMAJOR_AXIS":"6925.269","PERIOD":"95.590","ARG_OF_PERICENTER":"63.0074","MEAN_ELEMENT_THEORY":"SGP4","MEAN_MOTION_DOT":"0.00006186","OBJECT_TYPE":"PAYLOAD","ELEMENT_SET_NO":"999"},{"MEAN_MOTION_DDOT":"0.0000000000000","LAUNCH_DATE":"2020-04-22","REF_FRAME":"TEME","BSTAR":"0.00011117000000","OBJECT_NAME":"STARLINK-1343","CENTER_NAME":"EARTH","TLE_LINE1":"1 45584U 20025BF  21252.50382058  .00001375  00000-0  11117-3 0  9998","MEAN_MOTION_DOT":"0.00001375","MEAN_ELEMENT_THEORY":"SGP4","OBJECT_TYPE":"PAYLOAD","ARG_OF_PERICENTER":"59.7807","ELEMENT_SET_NO":"999","PERIAPSIS":"546.332","SEMIMAJOR_AXIS":"6925.341","PERIOD":"95.592","TLE_LINE2":"2 45584  53.0525 248.6834 0001262  59.7807 300.3307 15.06402464 77990","RA_OF_ASC_NODE":"248.6834","MEAN_MOTION":"15.06402464","OBJECT_ID":"2020-025BF","TIME_SYSTEM":"UTC","FILE":"3111654","GP_ID":"184379576","APOAPSIS":"548.080","MEAN_ANOMALY":"300.3307","ECCENTRICITY":"0.00012620","NORAD_CAT_ID":"45584","SITE":"AFETR","EPHEMERIS_TYPE":"0","DECAY_DATE":null,"REV_AT_EPOCH":"7799","CLASSIFICATION_TYPE":"U","RCS_SIZE":"LARGE","EPOCH":"2021-09-09T12:05:30.098112","COUNTRY_CODE":"US","INCLINATION":"53.0525"},{"EPOCH":"2021-09-09T12:26:43.144224","COUNTRY_CODE":"US","RCS_SIZE":"LARGE","INCLINATION":"53.0541","SITE":"AFETR","NORAD_CAT_ID":"45585","REV_AT_EPOCH":"7799","CLASSIFICATION_TYPE":"U","EPHEMERIS_TYPE":"0","DECAY_DATE":null,"GP_ID":"184378324","FILE":"3111654","ECCENTRICITY":"0.00014860","APOAPSIS":"548.266","MEAN_ANOMALY":"283.9376","MEAN_MOTION":"15.06392514","RA_OF_ASC_NODE":"248.6184","OBJECT_ID":"2020-025BG","TIME_SYSTEM":"UTC","PERIAPSIS":"546.207","TLE_LINE2":"2 45585  53.0541 248.6184 0001486  76.1779 283.9376 15.06392514 77992","SEMIMAJOR_AXIS":"6925.372","PERIOD":"95.593","ARG_OF_PERICENTER":"76.1779","MEAN_MOTION_DOT":"-0.00001159","MEAN_ELEMENT_THEORY":"SGP4","OBJECT_TYPE":"PAYLOAD","ELEMENT_SET_NO":"999","BSTAR":"-0.00005893400000","REF_FRAME":"TEME","TLE_LINE1":"1 45585U 20025BG  21252.51855491 -.00001159  00000-0 -58934-4 0  9997","OBJECT_NAME":"STARLINK-1345","CENTER_NAME":"EARTH","MEAN_MOTION_DDOT":"0.0000000000000","LAUNCH_DATE":"2020-04-22"},{"RCS_SIZE":"LARGE","EPOCH":"2021-09-09T11:01:47.728416","COUNTRY_CODE":"US","INCLINATION":"53.0547","NORAD_CAT_ID":"45586","SITE":"AFETR","EPHEMERIS_TYPE":"0","DECAY_DATE":null,"REV_AT_EPOCH":"7797","CLASSIFICATION_TYPE":"U","FILE":"3111654","GP_ID":"184378574","APOAPSIS":"548.226","MEAN_ANOMALY":"292.3190","ECCENTRICITY":"0.00014430","RA_OF_ASC_NODE":"248.8604","MEAN_MOTION":"15.06395708","TIME_SYSTEM":"UTC","OBJECT_ID":"2020-025BH","PERIAPSIS":"546.227","SEMIMAJOR_AXIS":"6925.362","PERIOD":"95.592","TLE_LINE2":"2 45586  53.0547 248.8604 0001443  67.7952 292.3190 15.06395708 77974","MEAN_ELEMENT_THEORY":"SGP4","MEAN_MOTION_DOT":"-0.00000363","OBJECT_TYPE":"PAYLOAD","ARG_OF_PERICENTER":"67.7952","ELEMENT_SET_NO":"999","REF_FRAME":"TEME","BSTAR":"-0.00000544900000","OBJECT_NAME":"STARLINK-1347","CENTER_NAME":"EARTH","TLE_LINE1":"1 45586U 20025BH  21252.45958019 -.00000363  00000-0 -54490-5 0  9991","MEAN_MOTION_DDOT":"0.0000000000000","LAUNCH_DATE":"2020-04-22"},{"RA_OF_ASC_NODE":"249.0194","MEAN_MOTION":"15.06400225","TIME_SYSTEM":"UTC","OBJECT_ID":"2020-025BJ","GP_ID":"184379326","FILE":"3111654","ECCENTRICITY":"0.00013770","MEAN_ANOMALY":"290.1607","APOAPSIS":"548.166","SITE":"AFETR","NORAD_CAT_ID":"45587","CLASSIFICATION_TYPE":"U","REV_AT_EPOCH":"7798","EPHEMERIS_TYPE":"0","DECAY_DATE":null,"EPOCH":"2021-09-09T10:19:21.509184","COUNTRY_CODE":"US","RCS_SIZE":"LARGE","INCLINATION":"53.0548","MEAN_MOTION_DDOT":"0.0000000000000","LAUNCH_DATE":"2020-04-22","BSTAR":"0.00006200700000","REF_FRAME":"TEME","TLE_LINE1":"1 45587U 20025BJ  21252.43011006  .00000642  00000-0  62007-4 0  9996","OBJECT_NAME":"STARLINK-1349","CENTER_NAME":"EARTH","ARG_OF_PERICENTER":"69.9531","MEAN_MOTION_DOT":"0.00000642","MEAN_ELEMENT_THEORY":"SGP4","OBJECT_TYPE":"PAYLOAD","ELEMENT_SET_NO":"999","PERIAPSIS":"546.259","TLE_LINE2":"2 45587  53.0548 249.0194 0001377  69.9531 290.1607 15.06400225 77987","PERIOD":"95.592","SEMIMAJOR_AXIS":"6925.348"},{"ARG_OF_PERICENTER":"23.5141","OBJECT_TYPE":"PAYLOAD","MEAN_MOTION_DOT":"-0.00000943","MEAN_ELEMENT_THEORY":"SGP4","ELEMENT_SET_NO":"999","PERIAPSIS":"546.607","TLE_LINE2":"2 45588  53.0534 249.1167 0000885  23.5141 336.5888 15.06397966 77972","PERIOD":"95.592","SEMIMAJOR_AXIS":"6925.355","MEAN_MOTION_DDOT":"0.0000000000000","LAUNCH_DATE":"2020-04-22","BSTAR":"-0.00004442300000","REF_FRAME":"TEME","TLE_LINE1":"1 45588U 20025BK  21252.40797558 -.00000943  00000-0 -44423-4 0  9995","CENTER_NAME":"EARTH","OBJECT_NAME":"STARLINK-1360","SITE":"AFETR","NORAD_CAT_ID":"45588","REV_AT_EPOCH":"7797","CLASSIFICATION_TYPE":"U","DECAY_DATE":null,"EPHEMERIS_TYPE":"0","COUNTRY_CODE":"US","EPOCH":"2021-09-09T09:47:29.090112","RCS_SIZE":"LARGE","INCLINATION":"53.0534","MEAN_MOTION":"15.06397966","RA_OF_ASC_NODE":"249.1167","OBJECT_ID":"2020-025BK","TIME_SYSTEM":"UTC","GP_ID":"184380075","FILE":"3111654","ECCENTRICITY":"0.00008850","APOAPSIS":"547.833","MEAN_ANOMALY":"336.5888"},{"RA_OF_ASC_NODE":"248.8339","MEAN_MOTION":"15.06398868","TIME_SYSTEM":"UTC","OBJECT_ID":"2020-025BL","GP_ID":"184378823","FILE":"3111654","ECCENTRICITY":"0.00010870","APOAPSIS":"547.970","MEAN_ANOMALY":"296.7975","SITE":"AFETR","NORAD_CAT_ID":"45589","CLASSIFICATION_TYPE":"U","REV_AT_EPOCH":"7798","EPHEMERIS_TYPE":"0","DECAY_DATE":null,"EPOCH":"2021-09-09T11:17:43.194048","COUNTRY_CODE":"US","RCS_SIZE":"LARGE","INCLINATION":"53.0536","MEAN_MOTION_DDOT":"0.0000000000000","LAUNCH_DATE":"2020-04-22","BSTAR":"-0.00005852500000","REF_FRAME":"TEME","TLE_LINE1":"1 45589U 20025BL  21252.47063882 -.00001153  00000-0 -58525-4 0  9991","OBJECT_NAME":"STARLINK-1364","CENTER_NAME":"EARTH","ARG_OF_PERICENTER":"63.3126","MEAN_MOTION_DOT":"-0.00001153","MEAN_ELEMENT_THEORY":"SGP4","OBJECT_TYPE":"PAYLOAD","ELEMENT_SET_NO":"999","PERIAPSIS":"546.464","TLE_LINE2":"2 45589  53.0536 248.8339 0001087  63.3126 296.7975 15.06398868 77989","SEMIMAJOR_AXIS":"6925.352","PERIOD":"95.592"},{"INCLINATION":"53.0543","COUNTRY_CODE":"US","EPOCH":"2021-09-09T11:40:16.407264","RCS_SIZE":"LARGE","REV_AT_EPOCH":"7696","CLASSIFICATION_TYPE":"U","DECAY_DATE":null,"EPHEMERIS_TYPE":"0","SITE":"AFETR","NORAD_CAT_ID":"45590","ECCENTRICITY":"0.00007640","MEAN_ANOMALY":"260.9992","APOAPSIS":"547.748","GP_ID":"184384812","FILE":"3111761","OBJECT_ID":"2020-025BM","TIME_SYSTEM":"UTC","RA_OF_ASC_NODE":"278.7622","MEAN_MOTION":"15.06398143","TLE_LINE2":"2 45590  53.0543 278.7622 0000764  99.1083 260.9992 15.06398143 76961","SEMIMAJOR_AXIS":"6925.354","PERIOD":"95.592","PERIAPSIS":"546.690","ELEMENT_SET_NO":"999","ARG_OF_PERICENTER":"99.1083","OBJECT_TYPE":"PAYLOAD","MEAN_ELEMENT_THEORY":"SGP4","MEAN_MOTION_DOT":"0.00000818","TLE_LINE1":"1 45590U 20025BM  21252.48630101  .00000818  00000-0  73793-4 0  9997","CENTER_NAME":"EARTH","OBJECT_NAME":"STARLINK-1365","BSTAR":"0.00007379300000","REF_FRAME":"TEME","LAUNCH_DATE":"2020-04-22","MEAN_MOTION_DDOT":"0.0000000000000"},{"TIME_SYSTEM":"UTC","OBJECT_ID":"2020-035B","MEAN_MOTION":"15.06400086","RA_OF_ASC_NODE":"238.8805","ECCENTRICITY":"0.00009830","APOAPSIS":"547.894","MEAN_ANOMALY":"293.6982","GP_ID":"184379831","FILE":"3111654","REV_AT_EPOCH":"7121","CLASSIFICATION_TYPE":"U","DECAY_DATE":null,"EPHEMERIS_TYPE":"0","SITE":"AFETR","NORAD_CAT_ID":"45658","INCLINATION":"53.0531","COUNTRY_CODE":"US","EPOCH":"2021-09-09T11:03:07.277760","RCS_SIZE":"LARGE","LAUNCH_DATE":"2020-06-04","MEAN_MOTION_DDOT":"0.0000000000000","TLE_LINE1":"1 45658U 20035B   21252.46050090 -.00000500  00000-0 -14660-4 0  9992","CENTER_NAME":"EARTH","OBJECT_NAME":"STARLINK-1441","BSTAR":"-0.00001466000000","REF_FRAME":"TEME","ELEMENT_SET_NO":"999","ARG_OF_PERICENTER":"66.4110","OBJECT_TYPE":"PAYLOAD","MEAN_MOTION_DOT":"-0.00000500","MEAN_ELEMENT_THEORY":"SGP4","TLE_LINE2":"2 45658  53.0531 238.8805 0000983  66.4110 293.6982 15.06400086 71219","SEMIMAJOR_AXIS":"6925.348","PERIOD":"95.592","PERIAPSIS":"546.533"}];
